start=new Date('2021-09-13T00:00:00.000Z').valueOf();
sats=[{"COUNTRY_CODE":"US","MEAN_MOTION_DOT":"0.00000865","MEAN_MOTION":"15.06398278","BSTAR":"0.00007701100000","TIME_SYSTEM":"UTC","TLE_LINE2":"2 46360  53.0541 128.6129 0002046  78.6540 281.4679 15.06398278 57930","CLASSIFICATION_TYPE":"U","ELEMENT_SET_NO":"999","REF_FRAME":"TEME","EPOCH":"2021-09-12T20:41:30.364800","RA_OF_ASC_NODE":"128.6129","OBJECT_TYPE":"PAYLOAD","ECCENTRICITY":"0.00020460","GP_ID":"184600166","APOAPSIS":"548.636","NORAD_CAT_ID":"46360","SEMIMAJOR_AXIS":"6925.354","CENTER_NAME":"EARTH","OBJECT_NAME":"STARLINK-1713","REV_AT_EPOCH":"5793","SITE":"AFETR","PERIOD":"95.592","FILE":"3114195","RCS_SIZE":"LARGE","MEAN_ELEMENT_THEORY":"SGP4","TLE_LINE1":"1 46360U 20062AM  21255.86215700  .00000865  00000-0  77011-4 0  9992","ARG_OF_PERICENTER":"78.6540","LAUNCH_DATE":"2020-09-03","MEAN_ANOMALY":"281.4679","MEAN_MOTION_DDOT":"0.0000000000000","OBJECT_ID":"2020-062AM","INCLINATION":"53.0541","EPHEMERIS_TYPE":"0","PERIAPSIS":"545.802","DECAY_DATE":null},{"MEAN_MOTION_DOT":"0.00001934","COUNTRY_CODE":"US","MEAN_MOTION":"15.06396362","BSTAR":"0.00014870000000","CLASSIFICATION_TYPE":"U","TIME_SYSTEM":"UTC","TLE_LINE2":"2 46361  53.0546 128.4430 0002062  74.8095 285.3122 15.06396362 57938","ELEMENT_SET_NO":"999","REF_FRAME":"TEME","OBJECT_TYPE":"PAYLOAD","RA_OF_ASC_NODE":"128.4430","EPOCH":"2021-09-12T21:34:34.835520","ECCENTRICITY":"0.00020620","GP_ID":"184600904","APOAPSIS":"548.653","NORAD_CAT_ID":"46361","SEMIMAJOR_AXIS":"6925.360","CENTER_NAME":"EARTH","OBJECT_NAME":"STARLINK-1722","REV_AT_EPOCH":"5793","PERIOD":"95.592","SITE":"AFETR","FILE":"3114195","RCS_SIZE":"LARGE","TLE_LINE1":"1 46361U 20062AN  21255.89901430  .00001934  00000-0  14870-3 0  9999","MEAN_ELEMENT_THEORY":"SGP4","MEAN_ANOMALY":"285.3122","ARG_OF_PERICENTER":"74.8095","LAUNCH_DATE":"2020-09-03","MEAN_MOTION_DDOT":"0.0000000000000","OBJECT_ID":"2020-062AN","INCLINATION":"53.0546","EPHEMERIS_TYPE":"0","PERIAPSIS":"545.797","DECAY_DATE":null},{"RA_OF_ASC_NODE":"128.5403","OBJECT_TYPE":"PAYLOAD","EPOCH":"2021-09-12T21:02:44.252448","ECCENTRICITY":"0.00021860","GP_ID":"184599165","APOAPSIS":"548.732","NORAD_CAT_ID":"46362","SEMIMAJOR_AXIS":"6925.353","CENTER_NAME":"EARTH","COUNTRY_CODE":"US","MEAN_MOTION_DOT":"-0.00000324","MEAN_MOTION":"15.06398501","BSTAR":"-0.00000282190000","CLASSIFICATION_TYPE":"U","TIME_SYSTEM":"UTC","TLE_LINE2":"2 46362  53.0534 128.5403 0002186  77.1290 282.9943 15.06398501 57938","ELEMENT_SET_NO":"999","REF_FRAME":"TEME","MEAN_ANOMALY":"282.9943","LAUNCH_DATE":"2020-09-03","ARG_OF_PERICENTER":"77.1290","MEAN_MOTION_DDOT":"0.0000000000000","OBJECT_ID":"2020-062AP","INCLINATION":"53.0534","PERIAPSIS":"545.704","EPHEMERIS_TYPE":"0","DECAY_DATE":null,"OBJECT_NAME":"STARLINK-1726","REV_AT_EPOCH":"5793","PERIOD":"95.592","SITE":"AFETR","FILE":"3114195","RCS_SIZE":"LARGE","MEAN_ELEMENT_THEORY":"SGP4","TLE_LINE1":"1 46362U 20062AP  21255.87690107 -.00000324  00000-0 -28219-5 0  9992"},{"MEAN_MOTION":"15.06387232","BSTAR":"-0.00000711460000","COUNTRY_CODE":"US","MEAN_MOTION_DOT":"-0.00000388","ELEMENT_SET_NO":"999","REF_FRAME":"TEME","CLASSIFICATION_TYPE":"U","TIME_SYSTEM":"UTC","TLE_LINE2":"2 46363  53.0537 128.5733 0002287  74.9474 285.1768 15.06387232 57938","GP_ID":"184599415","RA_OF_ASC_NODE":"128.5733","OBJECT_TYPE":"PAYLOAD","EPOCH":"2021-09-12T20:52:07.487040","ECCENTRICITY":"0.00022870","SEMIMAJOR_AXIS":"6925.388","NORAD_CAT_ID":"46363","CENTER_NAME":"EARTH","APOAPSIS":"548.837","SITE":"AFETR","PERIOD":"95.593","OBJECT_NAME":"STARLINK-1739","REV_AT_EPOCH":"5793","RCS_SIZE":"LARGE","TLE_LINE1":"1 46363U 20062AQ  21255.86953110 -.00000388  00000-0 -71146-5 0  9995","MEAN_ELEMENT_THEORY":"SGP4","FILE":"3114195","MEAN_MOTION_DDOT":"0.0000000000000","OBJECT_ID":"2020-062AQ","MEAN_ANOMALY":"285.1768","LAUNCH_DATE":"2020-09-03","ARG_OF_PERICENTER":"74.9474","PERIAPSIS":"545.669","EPHEMERIS_TYPE":"0","DECAY_DATE":null,"INCLINATION":"53.0537"},{"PERIOD":"95.593","SITE":"AFETR","OBJECT_NAME":"STARLINK-1763","REV_AT_EPOCH":"5820","RCS_SIZE":"LARGE","MEAN_ELEMENT_THEORY":"SGP4","TLE_LINE1":"1 46364U 20062AR  21255.81976718 -.00000479  00000-0 -13136-4 0  9995","FILE":"3114195","MEAN_MOTION_DDOT":"0.0000000000000","OBJECT_ID":"2020-062AR","MEAN_ANOMALY":"8.7716","ARG_OF_PERICENTER":"351.3162","LAUNCH_DATE":"2020-09-03","PERIAPSIS":"542.829","EPHEMERIS_TYPE":"0","DECAY_DATE":null,"INCLINATION":"53.0552","MEAN_MOTION":"15.06393679","BSTAR":"-0.00001313600000","COUNTRY_CODE":"US","MEAN_MOTION_DOT":"-0.00000479","ELEMENT_SET_NO":"999","REF_FRAME":"TEME","CLASSIFICATION_TYPE":"U","TIME_SYSTEM":"UTC","TLE_LINE2":"2 46364  53.0552 108.7992 0006359 351.3162   8.7716 15.06393679 58208","GP_ID":"184600667","OBJECT_TYPE":"PAYLOAD","RA_OF_ASC_NODE":"108.7992","EPOCH":"2021-09-12T19:40:27.884352","ECCENTRICITY":"0.00063590","SEMIMAJOR_AXIS":"6925.368","NORAD_CAT_ID":"46364","CENTER_NAME":"EARTH","APOAPSIS":"551.637"},{"MEAN_ANOMALY":"271.3940","ARG_OF_PERICENTER":"88.7266","LAUNCH_DATE":"2020-09-03","OBJECT_ID":"2020-062AS","MEAN_MOTION_DDOT":"0.0000000000000","INCLINATION":"53.0537","DECAY_DATE":null,"EPHEMERIS_TYPE":"0","PERIAPSIS":"545.898","REV_AT_EPOCH":"5793","OBJECT_NAME":"STARLINK-1550","PERIOD":"95.592","SITE":"AFETR","FILE":"3114195","TLE_LINE1":"1 46365U 20062AS  21255.91375314 -.00000421  00000-0 -93741-5 0  9990","MEAN_ELEMENT_THEORY":"SGP4","RCS_SIZE":"LARGE","ECCENTRICITY":"0.00018980","OBJECT_TYPE":"PAYLOAD","RA_OF_ASC_NODE":"128.3742","EPOCH":"2021-09-12T21:55:48.271296","GP_ID":"184600404","APOAPSIS":"548.527","CENTER_NAME":"EARTH","NORAD_CAT_ID":"46365","SEMIMAJOR_AXIS":"6925.347","MEAN_MOTION_DOT":"-0.00000421","COUNTRY_CODE":"US","BSTAR":"-0.00000937410000","MEAN_MOTION":"15.06400477","CLASSIFICATION_TYPE":"U","TLE_LINE2":"2 46365  53.0537 128.3742 0001898  88.7266 271.3940 15.06400477 57933","TIME_SYSTEM":"UTC","REF_FRAME":"TEME","ELEMENT_SET_NO":"999"},{"REV_AT_EPOCH":"5793","OBJECT_NAME":"STARLINK-1651","SITE":"AFETR","PERIOD":"95.593","FILE":"3114195","MEAN_ELEMENT_THEORY":"SGP4","TLE_LINE1":"1 46366U 20062AT  21255.90271322  .00000162  00000-0  29810-4 0  9999","RCS_SIZE":"LARGE","MEAN_ANOMALY":"274.1191","LAUNCH_DATE":"2020-09-03","ARG_OF_PERICENTER":"86.0020","OBJECT_ID":"2020-062AT","MEAN_MOTION_DDOT":"0.0000000000000","INCLINATION":"53.0539","DECAY_DATE":null,"PERIAPSIS":"545.890","EPHEMERIS_TYPE":"0","MEAN_MOTION_DOT":"0.00000162","COUNTRY_CODE":"US","BSTAR":"0.00002981000000","MEAN_MOTION":"15.06393065","CLASSIFICATION_TYPE":"U","TLE_LINE2":"2 46366  53.0539 128.4254 0001942  86.0020 274.1191 15.06393065 57937","TIME_SYSTEM":"UTC","REF_FRAME":"TEME","ELEMENT_SET_NO":"999","ECCENTRICITY":"0.00019420","OBJECT_TYPE":"PAYLOAD","RA_OF_ASC_NODE":"128.4254","EPOCH":"2021-09-12T21:39:54.422208","GP_ID":"184599666","APOAPSIS":"548.580","CENTER_NAME":"EARTH","SEMIMAJOR_AXIS":"6925.370","NORAD_CAT_ID":"46366"},{"OBJECT_ID":"2020-062AV","MEAN_MOTION_DDOT":"0.0000000000000","MEAN_ANOMALY":"291.5249","ARG_OF_PERICENTER":"68.5949","LAUNCH_DATE":"2020-09-03","DECAY_DATE":null,"EPHEMERIS_TYPE":"0","PERIAPSIS":"545.852","INCLINATION":"53.0550","SITE":"AFETR","PERIOD":"95.592","REV_AT_EPOCH":"5759","OBJECT_NAME":"STARLINK-1658","MEAN_ELEMENT_THEORY":"SGP4","TLE_LINE1":"1 46368U 20062AV  21255.90224193  .00000125  00000-0  27285-4 0  9998","RCS_SIZE":"LARGE","FILE":"3114195","GP_ID":"184599916","ECCENTRICITY":"0.00019630","OBJECT_TYPE":"PAYLOAD","RA_OF_ASC_NODE":"153.4284","EPOCH":"2021-09-12T21:39:13.702752","CENTER_NAME":"EARTH","NORAD_CAT_ID":"46368","SEMIMAJOR_AXIS":"6925.346","APOAPSIS":"548.571","BSTAR":"0.00002728500000","MEAN_MOTION":"15.06400816","COUNTRY_CODE":"US","MEAN_MOTION_DOT":"0.00000125","REF_FRAME":"TEME","ELEMENT_SET_NO":"999","CLASSIFICATION_TYPE":"U","TLE_LINE2":"2 46368  53.0550 153.4284 0001963  68.5949 291.5249 15.06400816 57593","TIME_SYSTEM":"UTC"},{"CENTER_NAME":"EARTH","NORAD_CAT_ID":"46369","SEMIMAJOR_AXIS":"6732.909","APOAPSIS":"355.469","GP_ID":"184600167","ECCENTRICITY":"0.00010330","RA_OF_ASC_NODE":"131.3515","OBJECT_TYPE":"PAYLOAD","EPOCH":"2021-09-12T20:52:49.769472","REF_FRAME":"TEME","ELEMENT_SET_NO":"999","CLASSIFICATION_TYPE":"U","TLE_LINE2":"2 46369  53.0507 131.3515 0001033 104.3193 255.7939 15.71443151 57898","TIME_SYSTEM":"UTC","BSTAR":"-0.00006318600000","MEAN_MOTION":"15.71443151","COUNTRY_CODE":"US","MEAN_MOTION_DOT":"-0.00008826","DECAY_DATE":null,"PERIAPSIS":"354.078","EPHEMERIS_TYPE":"0","INCLINATION":"53.0507","OBJECT_ID":"2020-062AW","MEAN_MOTION_DDOT":"0.0000000000000","MEAN_ANOMALY":"255.7939","ARG_OF_PERICENTER":"104.3193","LAUNCH_DATE":"2020-09-03","TLE_LINE1":"1 46369U 20062AW  21255.87002048 -.00008826  00000-0 -63186-4 0  9996","MEAN_ELEMENT_THEORY":"SGP4","RCS_SIZE":"LARGE","FILE":"3114195","SITE":"AFETR","PERIOD":"91.636","REV_AT_EPOCH":"5789","OBJECT_NAME":"STARLINK-1662"},{"MEAN_ELEMENT_THEORY":"SGP4","TLE_LINE1":"1 46370U 20062AX  21255.86538452 -.00000231  00000-0  33792-5 0  9992","RCS_SIZE":"LARGE","FILE":"3114195","SITE":"AFETR","PERIOD":"95.592","REV_AT_EPOCH":"5758","OBJECT_NAME":"STARLINK-1670","DECAY_DATE":null,"EPHEMERIS_TYPE":"0","PERIAPSIS":"545.737","INCLINATION":"53.0550","OBJECT_ID":"2020-062AX","MEAN_MOTION_DDOT":"0.0000000000000","ARG_OF_PERICENTER":"69.4648","LAUNCH_DATE":"2020-09-03","MEAN_ANOMALY":"290.6570","REF_FRAME":"TEME","ELEMENT_SET_NO":"999","TIME_SYSTEM":"UTC","TLE_LINE2":"2 46370  53.0550 153.5942 0002137  69.4648 290.6570 15.06398946 57584","CLASSIFICATION_TYPE":"U","BSTAR":"0.00000337920000","MEAN_MOTION":"15.06398946","COUNTRY_CODE":"US","MEAN_MOTION_DOT":"-0.00000231","CENTER_NAME":"EARTH","NORAD_CAT_ID":"46370","SEMIMAJOR_AXIS":"6925.352","APOAPSIS":"548.697","GP_ID":"184600905","ECCENTRICITY":"0.00021370","EPOCH":"2021-09-12T20:46:09.222528","RA_OF_ASC_NODE":"153.5942","OBJECT_TYPE":"PAYLOAD"}];
